{
  "type": "FeatureCollection",
  "features": [
    {
      "type": "Feature",
      "properties": {
        "norad_id": 66725,
        "name": "FLOCK 4H-22",
        "group": "last-30-days",
        "lat": -22.32636322939138,
        "lon": -111.20402787767217,
        "alt_km": 518.3633565586733,
        "timestamp": "2025-12-26T08:37:53.290794+00:00",
        "meta_object_name": "FLOCK 4H-22",
        "meta_object_id": "2025-276BM",
        "meta_epoch": "2025-12-26T04:34:37.439040",
        "meta_mean_motion": 15.1753329,
        "meta_eccentricity": 0.000146,
        "meta_inclination": 97.437,
        "meta_ra_of_asc_node": 71.7051,
        "meta_arg_of_pericenter": 269.7584,
        "meta_mean_anomaly": 90.3483,
        "meta_ephemeris_type": 0,
        "meta_classification_type": "U",
        "meta_norad_cat_id": 66725,
        "meta_element_set_no": 999,
        "meta_rev_at_epoch": 416,
        "meta_bstar": 0.0002961,
        "meta_mean_motion_dot": 5.875e-05,
        "meta_mean_motion_ddot": 0,
        "tle_line1": "1 66725U 25276BM  25360.19071110  .00005875  00000+0  29610-3 0  9999",
        "tle_line2": "2 66725  97.4370  71.7051 0001460 269.7584  90.3483 15.17533290  4165"
      },
      "geometry": {
        "type": "Point",
        "coordinates": [
          -111.20402787767217,
          -22.32636322939138
        ]
      }
    },
    {
      "type": "Feature",
      "properties": {
        "norad_id": 66726,
        "name": "FLOCK 4H-23",
        "group": "last-30-days",
        "lat": 0.42506083126269145,
        "lon": -108.05596572037562,
        "alt_km": 515.5101654268219,
        "timestamp": "2025-12-26T08:37:53.290808+00:00",
        "meta_object_name": "FLOCK 4H-23",
        "meta_object_id": "2025-276BN",
        "meta_epoch": "2025-12-26T03:05:39.779232",
        "meta_mean_motion": 15.17264907,
        "meta_eccentricity": 0.0003465,
        "meta_inclination": 97.4436,
        "meta_ra_of_asc_node": 71.6618,
        "meta_arg_of_pericenter": 227.6195,
        "meta_mean_anomaly": 132.4745,
        "meta_ephemeris_type": 0,
        "meta_classification_type": "U",
        "meta_norad_cat_id": 66726,
        "meta_element_set_no": 999,
        "meta_rev_at_epoch": 415,
        "meta_bstar": 0.00044683,
        "meta_mean_motion_dot": 8.835e-05,
        "meta_mean_motion_ddot": 0,
        "tle_line1": "1 66726U 25276BN  25360.12893263  .00008835  00000+0  44683-3 0  9990",
        "tle_line2": "2 66726  97.4436  71.6618 0003465 227.6195 132.4745 15.17264907  4159"
      },
      "geometry": {
        "type": "Point",
        "coordinates": [
          -108.05596572037562,
          0.42506083126269145
        ]
      }
    },
    {
      "type": "Feature",
      "properties": {
        "norad_id": 66727,
        "name": "FLOCK 4H-24",
        "group": "last-30-days",
        "lat": -9.95055897121079,
        "lon": -109.41923367414724,
        "alt_km": 516.9421702020436,
        "timestamp": "2025-12-26T08:37:53.290818+00:00",
        "meta_object_name": "FLOCK 4H-24",
        "meta_object_id": "2025-276BP",
        "meta_epoch": "2025-12-26T03:02:55.487040",
        "meta_mean_motion": 15.17365298,
        "meta_eccentricity": 0.0002889,
        "meta_inclination": 97.4435,
        "meta_ra_of_asc_node": 71.6665,
        "meta_arg_of_pericenter": 245.801,
        "meta_mean_anomaly": 114.2921,
        "meta_ephemeris_type": 0,
        "meta_classification_type": "U",
        "meta_norad_cat_id": 66727,
        "meta_element_set_no": 999,
        "meta_rev_at_epoch": 415,
        "meta_bstar": 0.00027456,
        "meta_mean_motion_dot": 5.416e-05,
        "meta_mean_motion_ddot": 0,
        "tle_line1": "1 66727U 25276BP  25360.12703110  .00005416  00000+0  27456-3 0  9993",
        "tle_line2": "2 66727  97.4435  71.6665 0002889 245.8010 114.2921 15.17365298  4157"
      },
      "geometry": {
        "type": "Point",
        "coordinates": [
          -109.41923367414724,
          -9.95055897121079
        ]
      }
    },
    {
      "type": "Feature",
      "properties": {
        "norad_id": 66728,
        "name": "FLOCK 4H-25",
        "group": "last-30-days",
        "lat": -79.07937449788963,
        "lon": 114.53958264413279,
        "alt_km": 519.6348822969785,
        "timestamp": "2025-12-26T08:37:53.290830+00:00",
        "meta_object_name": "FLOCK 4H-25",
        "meta_object_id": "2025-276BQ",
        "meta_epoch": "2025-12-26T04:14:49.039872",
        "meta_mean_motion": 15.18253226,
        "meta_eccentricity": 0.0001754,
        "meta_inclination": 97.4391,
        "meta_ra_of_asc_node": 71.7342,
        "meta_arg_of_pericenter": 114.6395,
        "meta_mean_anomaly": 245.5022,
        "meta_ephemeris_type": 0,
        "meta_classification_type": "U",
        "meta_norad_cat_id": 66728,
        "meta_element_set_no": 999,
        "meta_rev_at_epoch": 344,
        "meta_bstar": 0.00028501,
        "meta_mean_motion_dot": 5.771e-05,
        "meta_mean_motion_ddot": 0,
        "tle_line1": "1 66728U 25276BQ  25360.17695648  .00005771  00000+0  28501-3 0  9991",
        "tle_line2": "2 66728  97.4391  71.7342 0001754 114.6395 245.5022 15.18253226  3440"
      },
      "geometry": {
        "type": "Point",
        "coordinates": [
          114.53958264413279,
          -79.07937449788963
        ]
      }
    },
    {
      "type": "Feature",
      "properties": {
        "norad_id": 66729,
        "name": "FLOCK 4H-26",
        "group": "last-30-days",
        "lat": 9.424937338581763,
        "lon": -106.88990933192876,
        "alt_km": 515.4165568627495,
        "timestamp": "2025-12-26T08:37:53.290841+00:00",
        "meta_object_name": "FLOCK 4H-26",
        "meta_object_id": "2025-276BR",
        "meta_epoch": "2025-12-26T03:08:02.126688",
        "meta_mean_motion": 15.17192716,
        "meta_eccentricity": 0.0003675,
        "meta_inclination": 97.4386,
        "meta_ra_of_asc_node": 71.6425,
        "meta_arg_of_pericenter": 245.7147,
        "meta_mean_anomaly": 114.3703,
        "meta_ephemeris_type": 0,
        "meta_classification_type": "U",
        "meta_norad_cat_id": 66729,
        "meta_element_set_no": 999,
        "meta_rev_at_epoch": 415,
        "meta_bstar": 0.00043993,
        "meta_mean_motion_dot": 8.679e-05,
        "meta_mean_motion_ddot": 0,
        "tle_line1": "1 66729U 25276BR  25360.13058017  .00008679  00000+0  43993-3 0  9993",
        "tle_line2": "2 66729  97.4386  71.6425 0003675 245.7147 114.3703 15.17192716  4154"
      },
      "geometry": {
        "type": "Point",
        "coordinates": [
          -106.88990933192876,
          9.424937338581763
        ]
      }
    },
    {
      "type": "Feature",
      "properties": {
        "norad_id": 66730,
        "name": "FLOCK 4H-27",
        "group": "last-30-days",
        "lat": -80.90227550360854,
        "lon": -162.75557585017523,
        "alt_km": 519.5825320220238,
        "timestamp": "2025-12-26T08:37:53.290851+00:00",
        "meta_object_name": "FLOCK 4H-27",
        "meta_object_id": "2025-276BS",
        "meta_epoch": "2025-12-26T04:18:17.959392",
        "meta_mean_motion": 15.18123494,
        "meta_eccentricity": 0.0001385,
        "meta_inclination": 97.4366,
        "meta_ra_of_asc_node": 71.7221,
        "meta_arg_of_pericenter": 127.2079,
        "meta_mean_anomaly": 232.9281,
        "meta_ephemeris_type": 0,
        "meta_classification_type": "U",
        "meta_norad_cat_id": 66730,
        "meta_element_set_no": 999,
        "meta_rev_at_epoch": 416,
        "meta_bstar": 0.00030927,
        "meta_mean_motion_dot": 6.245e-05,
        "meta_mean_motion_ddot": 0,
        "tle_line1": "1 66730U 25276BS  25360.17937453  .00006245  00000+0  30927-3 0  9999",
        "tle_line2": "2 66730  97.4366  71.7221 0001385 127.2079 232.9281 15.18123494  4160"
      },
      "geometry": {
        "type": "Point",
        "coordinates": [
          -162.75557585017523,
          -80.90227550360854
        ]
      }
    },
    {
      "type": "Feature",
      "properties": {
        "norad_id": 66731,
        "name": "FLOCK 4H-28",
        "group": "last-30-days",
        "lat": 7.885230618999553,
        "lon": -107.09955484466047,
        "alt_km": 515.7316079624406,
        "timestamp": "2025-12-26T08:37:53.290862+00:00",
        "meta_object_name": "FLOCK 4H-28",
        "meta_object_id": "2025-276BT",
        "meta_epoch": "2025-12-26T01:32:39.046848",
        "meta_mean_motion": 15.17174832,
        "meta_eccentricity": 0.0003255,
        "meta_inclination": 97.4376,
        "meta_ra_of_asc_node": 71.5739,
        "meta_arg_of_pericenter": 246.397,
        "meta_mean_anomaly": 113.6922,
        "meta_ephemeris_type": 0,
        "meta_classification_type": "U",
        "meta_norad_cat_id": 66731,
        "meta_element_set_no": 999,
        "meta_rev_at_epoch": 414,
        "meta_bstar": 0.00032029,
        "meta_mean_motion_dot": 6.295e-05,
        "meta_mean_motion_ddot": 0,
        "tle_line1": "1 66731U 25276BT  25360.06434082  .00006295  00000+0  32029-3 0  9998",
        "tle_line2": "2 66731  97.4376  71.5739 0003255 246.3970 113.6922 15.17174832  4141"
      },
      "geometry": {
        "type": "Point",
        "coordinates": [
          -107.09955484466047,
          7.885230618999553
        ]
      }
    }
  ]
}